{"type": "FeatureCollection", "features": [ {"type": "Feature", "properties": {"norad_id": 66517, "name": "STARLINK-35937", "group": "last-30-days", "lat": 27.326915108068867, "lon": 149.79805351611793, "alt_km": 340.57196516263593, "timestamp": "2025-12-02T07:10:07.867286+00:00", "meta": {"OBJECT_NAME": "STARLINK-35937", "OBJECT_ID": "2025-265B", "EPOCH": "2025-12-01T20:00:01.999008", "MEAN_MOTION": 15.75031474, "ECCENTRICITY": 0.0001567, "INCLINATION": 42.9995, "RA_OF_ASC_NODE": 118.9427, "ARG_OF_PERICENTER": 284.7567, "MEAN_ANOMALY": 355.8094, "EPHEMERIS_TYPE": 0, "CLASSIFICATION_TYPE": "U", "NORAD_CAT_ID": 66517, "ELEMENT_SET_NO": 999, "REV_AT_EPOCH": 324, "BSTAR": 0.00013234, "MEAN_MOTION_DOT": 0.00019891, "MEAN_MOTION_DDOT": 0}, "tle": {"line1": "1 66517U 25265B   25335.83335647  .00019891  00000+0  13234-3 0  9995", "line2": "2 66517  42.9995 118.9427 0001567 284.7567 355.8094 15.75031474  3245"}}, "geometry": {"type": "Point", "coordinates": [149.79805351611793, 27.326915108068867]}}, {"type": "Feature", "properties": {"norad_id": 66518, "name": "STARLINK-35962", "group": "last-30-days", "lat": 28.38619251902741, "lon": 151.5592521037354, "alt_km": 340.56079147418404, "timestamp": "2025-12-02T07:10:07.867305+00:00", "meta": {"OBJECT_NAME": "STARLINK-35962", "OBJECT_ID": "2025-265C", "EPOCH": "2025-12-01T20:00:01.999008", "MEAN_MOTION": 15.74945849, "ECCENTRICITY": 0.0001867, "INCLINATION": 42.9994, "RA_OF_ASC_NODE": 118.9375, "ARG_OF_PERICENTER": 277.3915, "MEAN_ANOMALY": 5.1027, "EPHEMERIS_TYPE": 0, "CLASSIFICATION_TYPE": "U", "NORAD_CAT_ID": 66518, "ELEMENT_SET_NO": 999, "REV_AT_EPOCH": 324, "BSTAR": 0.0009646, "MEAN_MOTION_DOT": 0.00149742, "MEAN_MOTION_DDOT": 0}, "tle": {"line1": "1 66518U 25265C   25335.83335647  .00149742  00000+0  96460-3 0  9997", "line2": "2 66518  42.9994 118.9375 0001867 277.3915   5.1027 15.74945849  3245"}}, "geometry": {"type": "Point", "coordinates": [151.5592521037354, 28.38619251902741]}}, {"type": "Feature", "properties": {"norad_id": 66519, "name": "STARLINK-35931", "group": "last-30-days", "lat": 29.464029974564106, "lon": 153.4298235600219, "alt_km": 340.3982817623528, "timestamp": "2025-12-02T07:10:07.867327+00:00", "meta": {"OBJECT_NAME": "STARLINK-35931", "OBJECT_ID": "2025-265D", "EPOCH": "2025-12-01T20:00:01.999008", "MEAN_MOTION": 15.74982403, "ECCENTRICITY": 0.0001867, "INCLINATION": 42.9997, "RA_OF_ASC_NODE": 118.9329, "ARG_OF_PERICENTER": 275.9924, "MEAN_ANOMALY": 8.4193, "EPHEMERIS_TYPE": 0, "CLASSIFICATION_TYPE": "U", "NORAD_CAT_ID": 66519, "ELEMENT_SET_NO": 999, "REV_AT_EPOCH": 324, "BSTAR": 0.00082337, "MEAN_MOTION_DOT": 0.00127615, "MEAN_MOTION_DDOT": 0}, "tle": {"line1": "1 66519U 25265D   25335.83335647  .00127615  00000+0  82337-3 0  9991", "line2": "2 66519  42.9997 118.9329 0001867 275.9924   8.4193 15.74982403  3249"}}, "geometry": {"type": "Point", "coordinates": [153.4298235600219, 29.464029974564106]}}, {"type": "Feature", "properties": {"norad_id": 66520, "name": "STARLINK-35952", "group": "last-30-days", "lat": 30.4801704505288, "lon": 155.27565393976133, "alt_km": 339.75843471886856, "timestamp": "2025-12-02T07:10:07.867346+00:00", "meta": {"OBJECT_NAME": "STARLINK-35952", "OBJECT_ID": "2025-265E", "EPOCH": "2025-12-01T20:00:01.999008", "MEAN_MOTION": 15.74952734, "ECCENTRICITY": 0.0001779, "INCLINATION": 42.9994, "RA_OF_ASC_NODE": 118.9277, "ARG_OF_PERICENTER": 301.8397, "MEAN_ANOMALY": 344.4898, "EPHEMERIS_TYPE": 0, "CLASSIFICATION_TYPE": "U", "NORAD_CAT_ID": 66520, "ELEMENT_SET_NO": 999, "REV_AT_EPOCH": 324, "BSTAR": 0.0010375, "MEAN_MOTION_DOT": 0.0016136, "MEAN_MOTION_DDOT": 0}, "tle": {"line1": "1 66520U 25265E   25335.83335647  .00161360  00000+0  10375-2 0  9990", "line2": "2 66520  42.9994 118.9277 0001779 301.8397 344.4898 15.74952734  3244"}}, "geometry": {"type": "Point", "coordinates": [155.27565393976133, 30.4801704505288]}}, {"type": "Feature", "properties": {"norad_id": 66521, "name": "STARLINK-35915", "group": "last-30-days", "lat": 31.487073102167887, "lon": 157.19371651631292, "alt_km": 339.77143616361263, "timestamp": "2025-12-02T07:10:07.867363+00:00", "meta": {"OBJECT_NAME": "STARLINK-35915", "OBJECT_ID": "2025-265F", "EPOCH": "2025-12-01T20:00:01.999008", "MEAN_MOTION": 15.74984864, "ECCENTRICITY": 0.0001735, "INCLINATION": 42.9995, "RA_OF_ASC_NODE": 118.9228, "ARG_OF_PERICENTER": 296.2342, "MEAN_ANOMALY": 352.0111, "EPHEMERIS_TYPE": 0, "CLASSIFICATION_TYPE": "U", "NORAD_CAT_ID": 66521, "ELEMENT_SET_NO": 999, "REV_AT_EPOCH": 324, "BSTAR": 0.00071015, "MEAN_MOTION_DOT": 0.00109778, "MEAN_MOTION_DDOT": 0}, "tle": {"line1": "1 66521U 25265F   25335.83335647  .00109778  00000+0  71015-3 0  9995", "line2": "2 66521  42.9995 118.9228 0001735 296.2342 352.0111 15.74984864  3243"}}, "geometry": {"type": "Point", "coordinates": [157.19371651631292, 31.487073102167887]}}, {"type": "Feature", "properties": {"norad_id": 66522, "name": "STARLINK-35946", "group": "last-30-days", "lat": 32.460852032082435, "lon": 159.14585226136342, "alt_km": 340.0002459712314, "timestamp": "2025-12-02T07:10:07.867381+00:00", "meta": {"OBJECT_NAME": "STARLINK-35946", "OBJECT_ID": "2025-265G", "EPOCH": "2025-12-01T20:00:01.999008", "MEAN_MOTION": 15.75000937, "ECCENTRICITY": 0.0001634, "INCLINATION": 42.9996, "RA_OF_ASC_NODE": 118.9185, "ARG_OF_PERICENTER": 272.4684, "MEAN_ANOMALY": 17.694, "EPHEMERIS_TYPE": 0, "CLASSIFICATION_TYPE": "U", "NORAD_CAT_ID": 66522, "ELEMENT_SET_NO": 999, "REV_AT_EPOCH": 324, "BSTAR": 0.00057135, "MEAN_MOTION_DOT": 0.0008806, "MEAN_MOTION_DDOT": 0}, "tle": {"line1": "1 66522U 25265G   25335.83335647  .00088060  00000+0  57135-3 0  9993", "line2": "2 66522  42.9996 118.9185 0001634 272.4684  17.6940 15.75000937  3245"}}, "geometry": {"type": "Point", "coordinates": [159.14585226136342, 32.460852032082435]}}, {"type": "Feature", "properties": {"norad_id": 66523, "name": "STARLINK-35969", "group": "last-30-days", "lat": 33.3795805966719, "lon": 161.08697847430167, "alt_km": 340.14615735755615, "timestamp": "2025-12-02T07:10:07.867395+00:00", "meta": {"OBJECT_NAME": "STARLINK-35969", "OBJECT_ID": "2025-265H", "EPOCH": "2025-12-01T20:00:01.999008", "MEAN_MOTION": 15.75044237, "ECCENTRICITY": 0.0001551, "INCLINATION": 42.9996, "RA_OF_ASC_NODE": 118.9134, "ARG_OF_PERICENTER": 267.7171, "MEAN_ANOMALY": 24.3558, "EPHEMERIS_TYPE": 0, "CLASSIFICATION_TYPE": "U", "NORAD_CAT_ID": 66523, "ELEMENT_SET_NO": 999, "REV_AT_EPOCH": 324, "BSTAR": -0.00034069, "MEAN_MOTION_DOT": -0.00052497, "MEAN_MOTION_DDOT": 0}, "tle": {"line1": "1 66523U 25265H   25335.83335647 -.00052497  00000+0 -34069-3 0  9992", "line2": "2 66523  42.9996 118.9134 0001551 267.7171  24.3558 15.75044237  3247"}}, "geometry": {"type": "Point", "coordinates": [161.08697847430167, 33.3795805966719]}}, {"type": "Feature", "properties": {"norad_id": 66524, "name": "STARLINK-35687", "group": "last-30-days", "lat": 34.30508980083227, "lon": 163.15635503316773, "alt_km": 339.8164329263618, "timestamp": "2025-12-02T07:10:07.867405+00:00", "meta": {"OBJECT_NAME": "STARLINK-35687", "OBJECT_ID": "2025-265J", "EPOCH": "2025-12-01T20:00:01.999008", "MEAN_MOTION": 15.75017514, "ECCENTRICITY": 0.0001962, "INCLINATION": 42.9994, "RA_OF_ASC_NODE": 118.9083, "ARG_OF_PERICENTER": 282.4589, "MEAN_ANOMALY": 11.5268, "EPHEMERIS_TYPE": 0, "CLASSIFICATION_TYPE": "U", "NORAD_CAT_ID": 66524, "ELEMENT_SET_NO": 999, "REV_AT_EPOCH": 324, "BSTAR": 0.00032089, "MEAN_MOTION_DOT": 0.00049056, "MEAN_MOTION_DDOT": 0}, "tle": {"line1": "1 66524U 25265J   25335.83335647  .00049056  00000+0  32089-3 0  9998", "line2": "2 66524  42.9994 118.9083 0001962 282.4589  11.5268 15.75017514  3246"}}, "geometry": {"type": "Point", "coordinates": [163.15635503316773, 34.30508980083227]}}, {"type": "Feature", "properties": {"norad_id": 66525, "name": "STARLINK-35975", "group": "last-30-days", "lat": 35.16902022830113, "lon": 165.2072253173542, "alt_km": 339.854067390972, "timestamp": "2025-12-02T07:10:07.867416+00:00", "meta": {"OBJECT_NAME": "STARLINK-35975", "OBJECT_ID": "2025-265K", "EPOCH": "2025-12-01T20:00:01.999008", "MEAN_MOTION": 15.75045387, "ECCENTRICITY": 0.0001768, "INCLINATION": 42.9996, "RA_OF_ASC_NODE": 118.9036, "ARG_OF_PERICENTER": 277.0397, "MEAN_ANOMALY": 18.8641, "EPHEMERIS_TYPE": 0, "CLASSIFICATION_TYPE": "U", "NORAD_CAT_ID": 66525, "ELEMENT_SET_NO": 999, "REV_AT_EPOCH": 324, "BSTAR": -0.00023557, "MEAN_MOTION_DOT": -0.00036519, "MEAN_MOTION_DDOT": 0}, "tle": {"line1": "1 66525U 25265K   25335.83335647 -.00036519  00000+0 -23557-3 0  9991", "line2": "2 66525  42.9996 118.9036 0001768 277.0397  18.8641 15.75045387  3242"}}, "geometry": {"type": "Point", "coordinates": [165.2072253173542, 35.16902022830113]}}, {"type": "Feature", "properties": {"norad_id": 66526, "name": "STARLINK-35932", "group": "last-30-days", "lat": 36.01566691327587, "lon": 167.34954164278685, "alt_km": 339.2975908811595, "timestamp": "2025-12-02T07:10:07.867433+00:00", "meta": {"OBJECT_NAME": "STARLINK-35932", "OBJECT_ID": "2025-265L", "EPOCH": "2025-12-01T20:00:01.999008", "MEAN_MOTION": 15.75015341, "ECCENTRICITY": 0.0001291, "INCLINATION": 42.9995, "RA_OF_ASC_NODE": 118.8989, "ARG_OF_PERICENTER": 280.3525, "MEAN_ANOMALY": 17.4693, "EPHEMERIS_TYPE": 0, "CLASSIFICATION_TYPE": "U", "NORAD_CAT_ID": 66526, "ELEMENT_SET_NO": 999, "REV_AT_EPOCH": 313, "BSTAR": 0.00038204, "MEAN_MOTION_DOT": 0.00058553, "MEAN_MOTION_DDOT": 0}, "tle": {"line1": "1 66526U 25265L   25335.83335647  .00058553  00000+0  38204-3 0  9997", "line2": "2 66526  42.9995 118.8989 0001291 280.3525  17.4693 15.75015341  3136"}}, "geometry": {"type": "Point", "coordinates": [167.34954164278685, 36.01566691327587]}}]}